[{"OBJECT_NAME":"ACS3","OBJECT_ID":"2024-077B","EPOCH":"2026-03-09T20:35:31.743456","MEAN_MOTION":13.89619668,"ECCENTRICITY":0.00598178,"INCLINATION":97.2069,"RA_OF_ASC_NODE":9.932,"ARG_OF_PERICENTER":76.3572,"MEAN_ANOMALY":284.4244,"EPHEMERIS_TYPE":0,"CLASSIFICATION_TYPE":"U","NORAD_CAT_ID":59588,"ELEMENT_SET_NO":999,"REV_AT_EPOCH":9422,"BSTAR":0.019401649,"MEAN_MOTION_DOT":0.00024147,"MEAN_MOTION_DDOT":0},{"OBJECT_NAME":"FENGYUN 1C DEB","OBJECT_ID":"1999-025RT","EPOCH":"2026-03-09T22:58:59.883456","MEAN_MOTION":14.09735804,"ECCENTRICITY":0.00803014,"INCLINATION":98.7506,"RA_OF_ASC_NODE":73.8747,"ARG_OF_PERICENTER":232.8753,"MEAN_ANOMALY":192.8622,"EPHEMERIS_TYPE":0,"CLASSIFICATION_TYPE":"U","NORAD_CAT_ID":30114,"ELEMENT_SET_NO":999,"REV_AT_EPOCH":98383,"BSTAR":0.00025810021,"MEAN_MOTION_DOT":4.23e-6,"MEAN_MOTION_DDOT":0}]
